CZ-2C R/B               
1 52794U 22058K   25329.50622988  .00032462  00000+0  60387-3 0  9998
2 52794  50.1897 131.3545 0047447 127.2916 233.2391 15.47289440193960
CZ-2C R/B               
1 54039U 22132E   25329.47842150  .00034338  00000+0  53679-3 0  9996
2 54039  97.2951 325.3671 0023955 113.1095 247.2687 15.53372973174156
GSLV R/B                
1 54149U 22138AN  25329.39815723  .00003758  00000+0  33119-3 0  9990
2 54149  87.3841 201.2795 0022063 163.9308 196.2628 14.95999908168333
XRISM                   
1 57800U 23137A   25329.45172124  .00007418  00000+0  43818-3 0  9999
2 57800  31.0015 237.1455 0007611  69.3597 290.7857 15.10107560122013
ACS3                    
1 59588U 24077B   25329.48624367  .00002209  00000+0  19610-2 0  9997
2 59588  97.2913 288.9413 0072805  10.9800 349.2930 13.84354394 79755
