CCSDS_OMM_VERS = 2.0
CREATION_DATE  = 
ORIGINATOR     = 

OBJECT_NAME    = CZ-2C R/B
OBJECT_ID      = 2022-058K
CENTER_NAME    = EARTH
REF_FRAME      = TEME
TIME_SYSTEM    = UTC
MEAN_ELEMENT_THEORY = SGP/SGP4

EPOCH          = 2025-11-25T12:08:58.261632
MEAN_MOTION    = 15.47289440
ECCENTRICITY   = .0047447
INCLINATION    = 50.1897
RA_OF_ASC_NODE = 131.3545
ARG_OF_PERICENTER = 127.2916
MEAN_ANOMALY   = 233.2391

EPHEMERIS_TYPE = 0
CLASSIFICATION_TYPE = U
NORAD_CAT_ID   = 52794
ELEMENT_SET_NO = 999
REV_AT_EPOCH   = 19396
BSTAR          = .60387E-3
MEAN_MOTION_DOT = .32462E-3
MEAN_MOTION_DDOT = 0

CCSDS_OMM_VERS = 2.0
CREATION_DATE  = 
ORIGINATOR     = 

OBJECT_NAME    = CZ-2C R/B
OBJECT_ID      = 2022-132E
CENTER_NAME    = EARTH
REF_FRAME      = TEME
TIME_SYSTEM    = UTC
MEAN_ELEMENT_THEORY = SGP/SGP4

EPOCH          = 2025-11-25T11:28:55.617600
MEAN_MOTION    = 15.53372973
ECCENTRICITY   = .0023955
INCLINATION    = 97.2951
RA_OF_ASC_NODE = 325.3671
ARG_OF_PERICENTER = 113.1095
MEAN_ANOMALY   = 247.2687

EPHEMERIS_TYPE = 0
CLASSIFICATION_TYPE = U
NORAD_CAT_ID   = 54039
ELEMENT_SET_NO = 999
REV_AT_EPOCH   = 17415
BSTAR          = .53679E-3
MEAN_MOTION_DOT = .34338E-3
MEAN_MOTION_DDOT = 0

CCSDS_OMM_VERS = 2.0
CREATION_DATE  = 
ORIGINATOR     = 

OBJECT_NAME    = GSLV R/B
OBJECT_ID      = 2022-138AN
CENTER_NAME    = EARTH
REF_FRAME      = TEME
TIME_SYSTEM    = UTC
MEAN_ELEMENT_THEORY = SGP/SGP4

EPOCH          = 2025-11-25T09:33:20.784672
MEAN_MOTION    = 14.95999908
ECCENTRICITY   = .0022063
INCLINATION    = 87.3841
RA_OF_ASC_NODE = 201.2795
ARG_OF_PERICENTER = 163.9308
MEAN_ANOMALY   = 196.2628

EPHEMERIS_TYPE = 0
CLASSIFICATION_TYPE = U
NORAD_CAT_ID   = 54149
ELEMENT_SET_NO = 999
REV_AT_EPOCH   = 16833
BSTAR          = .33119E-3
MEAN_MOTION_DOT = .3758E-4
MEAN_MOTION_DDOT = 0

CCSDS_OMM_VERS = 2.0
CREATION_DATE  = 
ORIGINATOR     = 

OBJECT_NAME    = XRISM
OBJECT_ID      = 2023-137A
CENTER_NAME    = EARTH
REF_FRAME      = TEME
TIME_SYSTEM    = UTC
MEAN_ELEMENT_THEORY = SGP/SGP4

EPOCH          = 2025-11-25T10:50:28.715136
MEAN_MOTION    = 15.10107560
ECCENTRICITY   = .0007611
INCLINATION    = 31.0015
RA_OF_ASC_NODE = 237.1455
ARG_OF_PERICENTER = 69.3597
MEAN_ANOMALY   = 290.7857

EPHEMERIS_TYPE = 0
CLASSIFICATION_TYPE = U
NORAD_CAT_ID   = 57800
ELEMENT_SET_NO = 999
REV_AT_EPOCH   = 12201
BSTAR          = .43818E-3
MEAN_MOTION_DOT = .7418E-4
MEAN_MOTION_DDOT = 0

CCSDS_OMM_VERS = 2.0
CREATION_DATE  = 
ORIGINATOR     = 

OBJECT_NAME    = ACS3
OBJECT_ID      = 2024-077B
CENTER_NAME    = EARTH
REF_FRAME      = TEME
TIME_SYSTEM    = UTC
MEAN_ELEMENT_THEORY = SGP/SGP4

EPOCH          = 2025-11-25T11:40:11.453088
MEAN_MOTION    = 13.84354394
ECCENTRICITY   = .0072805
INCLINATION    = 97.2913
RA_OF_ASC_NODE = 288.9413
ARG_OF_PERICENTER = 10.9800
MEAN_ANOMALY   = 349.2930

EPHEMERIS_TYPE = 0
CLASSIFICATION_TYPE = U
NORAD_CAT_ID   = 59588
ELEMENT_SET_NO = 999
REV_AT_EPOCH   = 7975
BSTAR          = .1961E-2
MEAN_MOTION_DOT = .2209E-4
MEAN_MOTION_DDOT = 0

